NORAD_CAT_ID,OBJECT_NAME,OBJECT_TYPE,EPOCH,MEAN_MOTION,ECCENTRICITY,INCLINATION,RA_OF_ASC_NODE,ARG_OF_PERICENTER,MEAN_ANOMALY,BSTAR,MEAN_MOTION_DOT,MEAN_MOTION_DDOT,TLE_LINE0,TLE_LINE1,TLE_LINE2,SEMIMAJOR_AXIS,PERIOD,APOGEE,PERIGEE,DECAYED
56771.0,STARLINK-6339,PAYLOAD,2024-02-15 22:00:00,15.20181152,0.0003254,70.0,43.1614,267.0961,346.4994,-0.043571,-0.00879548,0.0,0 STARLINK-6339,1 56771U 23078E   24046.91667824 -.00879548  00000-0 -43571-1 0  9999,2 56771  70.0000  43.1614 0003254 267.0961 346.4994 15.20181152  6099,6883.431,94.726,507.536,503.056,0.0
56771.0,STARLINK-6339,PAYLOAD,2024-02-16 06:00:00,15.19542257,0.0003264,70.0,42.2925,271.8455,5.0689,-0.046397,-0.00916474,0.0,0 STARLINK-6339,1 56771U 23078E   24047.25001157 -.00916474  00000-0 -46397-1 0  9997,2 56771  70.0000  42.2925 0003264 271.8455   5.0689 15.19542257 41202,6885.36,94.765,509.472,504.978,0.0
56771.0,STARLINK-6339,PAYLOAD,2024-02-16 14:00:01,15.18921505,0.0003309,69.9998,41.4243,273.1779,26.2586,-0.05029,-0.00971155,0.0,0 STARLINK-6339,1 56771U 23078E   24047.58334491 -.00971155  00000-0 -50290-1 0  9997,2 56771  69.9998  41.4243 0003309 273.1779  26.2586 15.18921505  6009,6887.236,94.804,511.38,506.822,0.0
56771.0,STARLINK-6339,PAYLOAD,2024-02-16 22:00:00,15.1822635,0.0003362,70.0001,40.5572,267.7513,53.4416,-0.046223,-0.00881437,0.0,0 STARLINK-6339,1 56771U 23078E   24047.91667824 -.00881437  00000-0 -46223-1 0  9997,2 56771  70.0001  40.5572 0003362 267.7513  53.4416 15.18226350  6051,6889.338,94.848,513.519,508.887,0.0
56771.0,STARLINK-6339,PAYLOAD,2024-02-17 06:00:00,15.17585456,0.0003337,70.0,39.6908,272.8209,69.3453,-0.049074,-0.00915997,0.0,0 STARLINK-6339,1 56771U 23078E   24048.25001157 -.00915997  00000-0 -49074-1 0  9992,2 56771  70.0000  39.6908 0003337 272.8209  69.3453 15.17585456 41356,6891.277,94.888,515.442,510.843,0.0
56771.0,STARLINK-6339,PAYLOAD,2024-02-17 14:00:01,15.16963966,0.0003311,69.9998,38.8252,274.2522,88.09,-0.053161,-0.00970262,0.0,0 STARLINK-6339,1 56771U 23078E   24048.58334491 -.00970262  00000-0 -53161-1 0  9996,2 56771  69.9998  38.8252 0003311 274.2522  88.0900 15.16963966  5998,6893.16,94.926,517.307,512.742,0.0
56771.0,STARLINK-6339,PAYLOAD,2024-02-17 22:00:00,15.16273538,0.0003336,70.0001,37.9606,269.059,112.6919,-0.049204,-0.00886676,0.0,0 STARLINK-6339,1 56771U 23078E   24048.91667824 -.00886676  00000-0 -49204-1 0  9990,2 56771  70.0001  37.9606 0003336 269.0590 112.6919 15.16273538  6054,6895.252,94.97,519.417,514.817,0.0
56771.0,STARLINK-6339,PAYLOAD,2024-02-18 06:00:00,15.15627933,0.0003329,70.0,37.0968,274.1788,126.1989,-0.051834,-0.00914844,0.0,0 STARLINK-6339,1 56771U 23078E   24049.25001157 -.00914844  00000-0 -51834-1 0  9990,2 56771  70.0000  37.0968 0003329 274.1788 126.1989 15.15627933 41500,6897.21,95.01,521.371,516.779,0.0
56771.0,STARLINK-6339,PAYLOAD,2024-02-18 14:00:01,15.15005143,0.000325,69.9998,36.2338,275.0848,143.1226,-0.056021,-0.00967087,0.0,0 STARLINK-6339,1 56771U 23078E   24049.58334491 -.00967087  00000-0 -56021-1 0  9996,2 56771  69.9998  36.2338 0003250 275.0848 143.1226 15.15005143  6007,6899.1,95.049,523.207,518.723,0.0
56771.0,STARLINK-6339,PAYLOAD,2024-02-18 22:00:00,15.14321328,0.0003243,70.0001,35.3719,269.8953,165.3716,-0.052432,-0.00893314,0.0,0 STARLINK-6339,1 56771U 23078E   24049.91667824 -.00893314  00000-0 -52432-1 0  9995,2 56771  70.0001  35.3719 0003243 269.8953 165.3716 15.14321328  6058,6901.177,95.092,525.28,520.804,0.0
56771.0,STARLINK-6339,PAYLOAD,2024-02-19 06:00:00,15.13668192,0.000322,70.0,34.5107,274.88,176.6693,-0.054464,-0.00909715,0.0,0 STARLINK-6339,1 56771U 23078E   24050.25001157 -.00909715  00000-0 -54464-1 0  9995,2 56771  70.0000  34.5107 0003220 274.8800 176.6693 15.13668192 41657,6903.162,95.133,527.25,522.804,0.0
56771.0,STARLINK-6339,PAYLOAD,2024-02-19 14:00:01,15.13046473,0.0003168,69.9998,33.6504,275.1127,191.9193,-0.059038,-0.00964507,0.0,0 STARLINK-6339,1 56771U 23078E   24050.58334491 -.00964507  00000-0 -59038-1 0  9993,2 56771  69.9998  33.6504 0003168 275.1127 191.9193 15.13046473  5970,6905.053,95.172,529.105,524.73,0.0
56771.0,STARLINK-6339,PAYLOAD,2024-02-19 22:00:00,15.12368362,0.000317,70.0001,32.7911,269.7539,211.9886,-0.055781,-0.00899117,0.0,0 STARLINK-6339,1 56771U 23078E   24050.91667824 -.00899117  00000-0 -55781-1 0  9994,2 56771  70.0001  32.7911 0003170 269.7539 211.9886 15.12368362  6032,6907.117,95.215,531.171,526.792,0.0
56771.0,STARLINK-6339,PAYLOAD,2024-02-20 06:00:00,15.11708459,0.0003187,70.0,31.9326,274.7888,220.8919,-0.057192,-0.00904605,0.0,0 STARLINK-6339,1 56771U 23078E   24051.25001157 -.00904605  00000-0 -57192-1 0  9990,2 56771  70.0000  31.9326 0003187 274.7888 220.8919 15.11708459 41807,6909.127,95.256,533.193,528.79,0.0
56771.0,STARLINK-6339,PAYLOAD,2024-02-20 14:00:01,15.11088601,0.0003098,69.9998,31.0748,274.2156,234.6007,-0.06224,-0.00962801,0.0,0 STARLINK-6339,1 56771U 23078E   24051.58334491 -.00962801  00000-0 -62240-1 0  9998,2 56771  69.9998  31.0748 0003098 274.2156 234.6007 15.11088601  5837,6911.016,95.296,535.022,530.74,0.0
56771.0,STARLINK-6339,PAYLOAD,2024-02-20 22:00:00,15.10415249,0.0003121,70.0003,30.2182,269.0504,252.1274,-0.059293,-0.00904716,0.0,0 STARLINK-6339,1 56771U 23078E   24051.91667824 -.00904716  00000-0 -59293-1 0  9999,2 56771  70.0003  30.2182 0003121 269.0504 252.1274 15.10415249 41917,6913.07,95.338,537.092,532.777,0.0
56771.0,STARLINK-6339,PAYLOAD,2024-02-21 00:00:00,15.10275363,0.0003196,70.0003,30.0041,267.3091,346.8309,-0.062415,-0.00945396,0.0,0 STARLINK-6339,1 56771U 23078E   24052.00001157 -.00945396  00000-0 -62415-1 0  9990,2 56771  70.0003  30.0041 0003196 267.3091 346.8309 15.10275363  5903,6913.497,95.347,537.571,533.152,0.0
56771.0,STARLINK-6339,PAYLOAD,2024-02-21 14:00:01,15.0913002,0.0003054,70.0,28.5071,273.0811,270.479,-0.065545,-0.00960637,0.0,0 STARLINK-6339,1 56771U 23078E   24052.58334491 -.00960637  00000-0 -65545-1 0  9995,2 56771  70.0000  28.5071 0003054 273.0811 270.4790 15.09130020 42019,6916.994,95.419,540.972,536.747,0.0
56771.0,STARLINK-6339,PAYLOAD,2024-02-21 22:00:00,15.0846162,0.0003088,70.0004,27.653,268.3314,285.2417,-0.062944,-0.0090971,0.0,0 STARLINK-6339,1 56771U 23078E   24052.91667824 -.00909710  00000-0 -62944-1 0  9996,2 56771  70.0004  27.6530 0003088 268.3314 285.2417 15.08461620  6040,6919.037,95.461,543.039,538.766,0.0
56771.0,STARLINK-6339,PAYLOAD,2024-02-22 06:00:00,15.07788571,0.000311,70.0003,26.7996,274.3965,288.4249,-0.062803,-0.00892438,0.0,0 STARLINK-6339,1 56771U 23078E   24053.25001157 -.00892438  00000-0 -62803-1 0  9997,2 56771  70.0003  26.7996 0003110 274.3965 288.4249 15.07788571 42112,6921.096,95.504,545.114,540.809,0.0
56771.0,STARLINK-6339,PAYLOAD,2024-02-22 14:00:01,15.07170966,0.0003041,70.0003,25.9471,272.4386,298.825,-0.068937,-0.00957832,0.0,0 STARLINK-6339,1 56771U 23078E   24053.58334491 -.00957832  00000-0 -68937-1 0  9997,2 56771  70.0003  25.9471 0003041 272.4386 298.8250 15.07170966  5984,6922.987,95.543,546.957,542.746,0.0
56771.0,STARLINK-6339,PAYLOAD,2024-02-22 22:00:00,15.0650665,0.0003085,70.0007,25.0957,268.0437,310.8843,-0.066582,-0.00912148,0.0,0 STARLINK-6339,1 56771U 23078E   24053.91667824 -.00912148  00000-0 -66582-1 0  9998,2 56771  70.0007  25.0957 0003085 268.0437 310.8843 15.06506650 42216,6925.022,95.585,549.023,544.75,0.0
56771.0,STARLINK-6339,PAYLOAD,2024-02-23 14:00:01,15.05212038,0.0003039,70.0005,23.395,272.341,319.5854,-0.072475,-0.00955164,0.0,0 STARLINK-6339,1 56771U 23078E   24054.58334491 -.00955164  00000-0 -72475-1 0  9996,2 56771  70.0005  23.3950 0003039 272.3410 319.5854 15.05212038 42318,6928.992,95.668,552.963,548.751,0.0
56771.0,STARLINK-6339,PAYLOAD,2024-02-23 22:00:01,15.04550687,0.0003087,70.0009,22.5461,268.2878,329.0175,-0.070271,-0.00913108,0.0,0 STARLINK-6339,1 56771U 23078E   24054.91668981 -.00913108  00000-0 -70271-1 0  9991,2 56771  70.0009  22.5461 0003087 268.2878 329.0175 15.04550687  6018,6931.022,95.71,555.027,550.748,0.0
56771.0,STARLINK-6339,PAYLOAD,2024-02-24 06:00:00,15.03872209,0.00031,70.0008,21.6978,275.026,326.7745,-0.069237,-0.00885565,0.0,0 STARLINK-6339,1 56771U 23078E   24055.25001157 -.00885565  00000-0 -69237-1 0  9990,2 56771  70.0008  21.6978 0003100 275.0260 326.7745 15.03872209 42414,6933.107,95.753,557.121,552.822,0.0
56771.0,STARLINK-6339,PAYLOAD,2024-02-24 14:00:01,15.0325301,0.0003052,70.0007,20.8504,272.2573,333.3539,-0.076115,-0.00963113,0.0,0 STARLINK-6339,1 56771U 23078E   24055.58335648 -.00963113  00000-0 -76115-1 0  9990,2 56771  70.0007  20.8504 0003052 272.2573 333.3539 15.03253010  5991,6935.01,95.792,558.992,554.759,0.0
56771.0,STARLINK-6339,PAYLOAD,2024-02-24 22:00:00,15.02594409,0.0003084,70.0011,20.0041,268.4957,340.0212,-0.074114,-0.0091393,0.0,0 STARLINK-6339,1 56771U 23078E   24055.91667824 -.00913930  00000-0 -74114-1 0  9990,2 56771  70.0011  20.0041 0003084 268.4957 340.0212 15.02594409 42513,6937.037,95.834,561.041,556.762,0.0
56771.0,STARLINK-6339,PAYLOAD,2024-02-25 14:00:01,15.01293681,0.0003058,70.001,18.3137,272.1105,340.0195,-0.079778,-0.0095865,0.0,0 STARLINK-6339,1 56771U 23078E   24056.58334491 -.00958650  00000-0 -79778-1 0  9994,2 56771  70.0010  18.3137 0003058 272.1105 340.0195 15.01293681 42614,6941.043,95.917,565.031,560.785,0.0
56771.0,STARLINK-6339,PAYLOAD,2024-02-25 22:00:00,15.00638553,0.0003065,70.0014,17.4699,268.1376,344.6127,-0.078249,-0.00916082,0.0,0 STARLINK-6339,1 56771U 23078E   24056.91667824 -.00916082  00000-0 -78249-1 0  9995,2 56771  70.0014  17.4699 0003065 268.1376 344.6127 15.00638553  5966,6943.063,95.959,567.056,562.8,0.0
56771.0,STARLINK-6339,PAYLOAD,2024-02-26 06:00:00,14.99891957,0.0003067,70.0015,16.6267,275.7151,336.9104,-0.061248,-0.00708213,0.0,0 STARLINK-6339,1 56771U 23078E   24057.25001157 -.00708213  00000-0 -61248-1 0  9990,2 56771  70.0015  16.6267 0003067 275.7151 336.9104 14.99891957 42715,6945.367,96.007,569.362,565.102,0.0
